{"type": "FeatureCollection", "features": [ {"type": "Feature", "properties": {"norad_id": 43262, "name": "GAOFEN-1 04", "group": "resource", "lat": -27.80714994012643, "lon": 39.11109542786189, "alt_km": 646.4718692501392, "timestamp": "2025-12-02T23:34:15.171218+00:00", "meta": {"OBJECT_NAME": "GAOFEN-1 04", "OBJECT_ID": "2018-031D", "EPOCH": "2025-12-02T12:18:43.690752", "MEAN_MOTION": 14.76414891, "ECCENTRICITY": 0.0001383, "INCLINATION": 98.0822, "RA_OF_ASC_NODE": 34.3438, "ARG_OF_PERICENTER": 63.0601, "MEAN_ANOMALY": 297.0749, "EPHEMERIS_TYPE": 0, "CLASSIFICATION_TYPE": "U", "NORAD_CAT_ID": 43262, "ELEMENT_SET_NO": 999, "REV_AT_EPOCH": 41366, "BSTAR": 0.00020415, "MEAN_MOTION_DOT": 1.367e-05, "MEAN_MOTION_DDOT": 0}, "tle": {"line1": "1 43262U 18031D   25336.51300568  .00001367  00000+0  20415-3 0  9998", "line2": "2 43262  98.0822  34.3438 0001383  63.0601 297.0749 14.76414891413667"}}, "geometry": {"type": "Point", "coordinates": [39.11109542786189, -27.80714994012643]}}, {"type": "Feature", "properties": {"norad_id": 43437, "name": "SENTINEL-3B", "group": "resource", "lat": 77.86871579965322, "lon": -2.6332297838388747, "alt_km": 794.4250462025293, "timestamp": "2025-12-02T23:34:15.171228+00:00", "meta": {"OBJECT_NAME": "SENTINEL-3B", "OBJECT_ID": "2018-039A", "EPOCH": "2025-12-02T11:24:31.639680", "MEAN_MOTION": 14.26736355, "ECCENTRICITY": 0.0001473, "INCLINATION": 98.6281, "RA_OF_ASC_NODE": 41.8071, "ARG_OF_PERICENTER": 112.5255, "MEAN_ANOMALY": 247.6081, "EPHEMERIS_TYPE": 0, "CLASSIFICATION_TYPE": "U", "NORAD_CAT_ID": 43437, "ELEMENT_SET_NO": 999, "REV_AT_EPOCH": 39607, "BSTAR": 0.00010693, "MEAN_MOTION_DOT": 2.15e-06, "MEAN_MOTION_DDOT": 0}, "tle": {"line1": "1 43437U 18039A   25336.47536620  .00000215  00000+0  10693-3 0  9993", "line2": "2 43437  98.6281  41.8071 0001473 112.5255 247.6081 14.26736355396079"}}, "geometry": {"type": "Point", "coordinates": [-2.6332297838388747, 77.86871579965322]}}, {"type": "Feature", "properties": {"norad_id": 43461, "name": "GAOFEN-5 01", "group": "resource", "lat": -29.91952913719231, "lon": -55.32379712478524, "alt_km": 696.982677591669, "timestamp": "2025-12-02T23:34:15.171238+00:00", "meta": {"OBJECT_NAME": "GAOFEN-5 01", "OBJECT_ID": "2018-043A", "EPOCH": "2025-12-02T10:33:15.427296", "MEAN_MOTION": 14.60390561, "ECCENTRICITY": 0.0001633, "INCLINATION": 98.4311, "RA_OF_ASC_NODE": 299.2281, "ARG_OF_PERICENTER": 12.9863, "MEAN_ANOMALY": 347.1378, "EPHEMERIS_TYPE": 0, "CLASSIFICATION_TYPE": "U", "NORAD_CAT_ID": 43461, "ELEMENT_SET_NO": 999, "REV_AT_EPOCH": 40297, "BSTAR": 0.0001498, "MEAN_MOTION_DOT": 6.76e-06, "MEAN_MOTION_DDOT": 0}, "tle": {"line1": "1 43461U 18043A   25336.43976189  .00000676  00000+0  14980-3 0  9993", "line2": "2 43461  98.4311 299.2281 0001633  12.9863 347.1378 14.60390561402971"}}, "geometry": {"type": "Point", "coordinates": [-55.32379712478524, -29.91952913719231]}}, {"type": "Feature", "properties": {"norad_id": 43484, "name": "GAOFEN-6", "group": "resource", "lat": 59.67055673940524, "lon": -124.86510092315903, "alt_km": 626.1630896097968, "timestamp": "2025-12-02T23:34:15.171248+00:00", "meta": {"OBJECT_NAME": "GAOFEN-6", "OBJECT_ID": "2018-048A", "EPOCH": "2025-12-02T18:09:14.390784", "MEAN_MOTION": 14.7653518, "ECCENTRICITY": 0.0013334, "INCLINATION": 97.8046, "RA_OF_ASC_NODE": 41.3582, "ARG_OF_PERICENTER": 93.1311, "MEAN_ANOMALY": 267.1425, "EPHEMERIS_TYPE": 0, "CLASSIFICATION_TYPE": "U", "NORAD_CAT_ID": 43484, "ELEMENT_SET_NO": 999, "REV_AT_EPOCH": 40440, "BSTAR": 7.7445e-05, "MEAN_MOTION_DOT": 4.91e-06, "MEAN_MOTION_DDOT": 0}, "tle": {"line1": "1 43484U 18048A   25336.75641656  .00000491  00000+0  77445-4 0  9997", "line2": "2 43484  97.8046  41.3582 0013334  93.1311 267.1425 14.76535180404403"}}, "geometry": {"type": "Point", "coordinates": [-124.86510092315903, 59.67055673940524]}}, {"type": "Feature", "properties": {"norad_id": 43585, "name": "GAOFEN-11 01", "group": "resource", "lat": -81.13050382769269, "lon": 166.35404467803636, "alt_km": 427.66016396544364, "timestamp": "2025-12-02T23:34:15.171260+00:00", "meta": {"OBJECT_NAME": "GAOFEN-11 01", "OBJECT_ID": "2018-063A", "EPOCH": "2025-12-02T13:07:37.642944", "MEAN_MOTION": 15.48782121, "ECCENTRICITY": 0.0005041, "INCLINATION": 97.1583, "RA_OF_ASC_NODE": 39.5696, "ARG_OF_PERICENTER": 357.132, "MEAN_ANOMALY": 2.9902, "EPHEMERIS_TYPE": 0, "CLASSIFICATION_TYPE": "U", "NORAD_CAT_ID": 43585, "ELEMENT_SET_NO": 999, "REV_AT_EPOCH": 40984, "BSTAR": 0.00033084, "MEAN_MOTION_DOT": 0.00017699, "MEAN_MOTION_DDOT": 0}, "tle": {"line1": "1 43585U 18063A   25336.54696346  .00017699  00000+0  33084-3 0  9997", "line2": "2 43585  97.1583  39.5696 0005041 357.1320   2.9902 15.48782121409845"}}, "geometry": {"type": "Point", "coordinates": [166.35404467803636, -81.13050382769269]}}, {"type": "Feature", "properties": {"norad_id": 43613, "name": "ICESAT-2", "group": "resource", "lat": 12.22308521228972, "lon": -122.33166408217134, "alt_km": 482.6110673144258, "timestamp": "2025-12-02T23:34:15.171271+00:00", "meta": {"OBJECT_NAME": "ICESAT-2", "OBJECT_ID": "2018-070A", "EPOCH": "2025-12-02T10:56:45.209184", "MEAN_MOTION": 15.28307084, "ECCENTRICITY": 6.29e-05, "INCLINATION": 92.0055, "RA_OF_ASC_NODE": 237.9613, "ARG_OF_PERICENTER": 150.8821, "MEAN_ANOMALY": 209.2464, "EPHEMERIS_TYPE": 0, "CLASSIFICATION_TYPE": "U", "NORAD_CAT_ID": 43613, "ELEMENT_SET_NO": 999, "REV_AT_EPOCH": 40241, "BSTAR": 0.00057494, "MEAN_MOTION_DOT": 0.00015856, "MEAN_MOTION_DDOT": 0}, "tle": {"line1": "1 43613U 18070A   25336.45607881  .00015856  00000+0  57494-3 0  9997", "line2": "2 43613  92.0055 237.9613 0000629 150.8821 209.2464 15.28307084402419"}}, "geometry": {"type": "Point", "coordinates": [-122.33166408217134, 12.22308521228972]}}, {"type": "Feature", "properties": {"norad_id": 43719, "name": "HYSIS", "group": "resource", "lat": 78.50581237726067, "lon": -3.827185840642782, "alt_km": 625.2718271635467, "timestamp": "2025-12-02T23:34:15.171281+00:00", "meta": {"OBJECT_NAME": "HYSIS", "OBJECT_ID": "2018-096A", "EPOCH": "2025-12-02T15:04:55.138080", "MEAN_MOTION": 14.78596971, "ECCENTRICITY": 0.0001703, "INCLINATION": 98.0111, "RA_OF_ASC_NODE": 39.6552, "ARG_OF_PERICENTER": 68.6341, "MEAN_ANOMALY": 291.5051, "EPHEMERIS_TYPE": 0, "CLASSIFICATION_TYPE": "U", "NORAD_CAT_ID": 43719, "ELEMENT_SET_NO": 999, "REV_AT_EPOCH": 37837, "BSTAR": 2.2921e-05, "MEAN_MOTION_DOT": 1.16e-06, "MEAN_MOTION_DDOT": 0}, "tle": {"line1": "1 43719U 18096A   25336.62841595  .00000116  00000+0  22921-4 0  9994", "line2": "2 43719  98.0111  39.6552 0001703  68.6341 291.5051 14.78596971378373"}}, "geometry": {"type": "Point", "coordinates": [-3.827185840642782, 78.50581237726067]}}, {"type": "Feature", "properties": {"norad_id": 43783, "name": "KAZSTSAT", "group": "resource", "lat": -47.462167367733315, "lon": 20.791695023475377, "alt_km": 573.193970309565, "timestamp": "2025-12-02T23:34:15.171291+00:00", "meta": {"OBJECT_NAME": "KAZSTSAT", "OBJECT_ID": "2018-099AB", "EPOCH": "2025-12-02T01:21:35.196768", "MEAN_MOTION": 14.99291992, "ECCENTRICITY": 0.00066196, "INCLINATION": 97.4552, "RA_OF_ASC_NODE": 11.7011, "ARG_OF_PERICENTER": 8.824, "MEAN_ANOMALY": 351.3099, "EPHEMERIS_TYPE": 0, "CLASSIFICATION_TYPE": "U", "NORAD_CAT_ID": 43783, "ELEMENT_SET_NO": 999, "REV_AT_EPOCH": 38176, "BSTAR": 0.00020697251, "MEAN_MOTION_DOT": 2.472e-05, "MEAN_MOTION_DDOT": 0}, "tle": {"line1": "1 43783U 18099AB  25336.05665737  .00002472  00000+0  20697-3 0  9991", "line2": "2 43783  97.4552  11.7011 0006619   8.8240 351.3099 14.99291992381764"}}, "geometry": {"type": "Point", "coordinates": [20.791695023475377, -47.462167367733315]}}, {"type": "Feature", "properties": {"norad_id": 43831, "name": "SAUDISAT 5A", "group": "resource", "lat": 14.88626758796707, "lon": -140.67437163277907, "alt_km": 486.17652592752984, "timestamp": "2025-12-02T23:34:15.171301+00:00", "meta": {"OBJECT_NAME": "SAUDISAT 5A", "OBJECT_ID": "2018-102A", "EPOCH": "2025-12-02T11:49:52.762656", "MEAN_MOTION": 15.2545428, "ECCENTRICITY": 0.0011783, "INCLINATION": 97.3376, "RA_OF_ASC_NODE": 36.8829, "ARG_OF_PERICENTER": 107.7006, "MEAN_ANOMALY": 252.5519, "EPHEMERIS_TYPE": 0, "CLASSIFICATION_TYPE": "U", "NORAD_CAT_ID": 43831, "ELEMENT_SET_NO": 999, "REV_AT_EPOCH": 38566, "BSTAR": 0.00031533, "MEAN_MOTION_DOT": 7.922e-05, "MEAN_MOTION_DDOT": 0}, "tle": {"line1": "1 43831U 18102A   25336.49297179  .00007922  00000+0  31533-3 0  9995", "line2": "2 43831  97.3376  36.8829 0011783 107.7006 252.5519 15.25454280385666"}}, "geometry": {"type": "Point", "coordinates": [-140.67437163277907, 14.88626758796707]}}, {"type": "Feature", "properties": {"norad_id": 43833, "name": "SAUDISAT 5B", "group": "resource", "lat": -24.57918487954086, "lon": -143.29965023976916, "alt_km": 494.8835485545642, "timestamp": "2025-12-02T23:34:15.171312+00:00", "meta": {"OBJECT_NAME": "SAUDISAT 5B", "OBJECT_ID": "2018-102C", "EPOCH": "2025-12-02T11:39:36.609696", "MEAN_MOTION": 15.25811924, "ECCENTRICITY": 0.0012442, "INCLINATION": 97.347, "RA_OF_ASC_NODE": 39.5961, "ARG_OF_PERICENTER": 110.3146, "MEAN_ANOMALY": 249.9431, "EPHEMERIS_TYPE": 0, "CLASSIFICATION_TYPE": "U", "NORAD_CAT_ID": 43833, "ELEMENT_SET_NO": 999, "REV_AT_EPOCH": 38577, "BSTAR": 0.00030323, "MEAN_MOTION_DOT": 7.699e-05, "MEAN_MOTION_DDOT": 0}, "tle": {"line1": "1 43833U 18102C   25336.48584039  .00007699  00000+0  30323-3 0  9997", "line2": "2 43833  97.3470  39.5961 0012442 110.3146 249.9431 15.25811924385775"}}, "geometry": {"type": "Point", "coordinates": [-143.29965023976916, -24.57918487954086]}}]}